NORAD_CAT_ID,OBJECT_NAME,OBJECT_TYPE,EPOCH,MEAN_MOTION,ECCENTRICITY,INCLINATION,RA_OF_ASC_NODE,ARG_OF_PERICENTER,MEAN_ANOMALY,BSTAR,MEAN_MOTION_DOT,MEAN_MOTION_DDOT,TLE_LINE0,TLE_LINE1,TLE_LINE2,SEMIMAJOR_AXIS,PERIOD,APOGEE,PERIGEE,DECAYED
52708.0,STARLINK-3962,PAYLOAD,2024-02-18 20:47:44,15.08853159,0.0001408,53.215,260.1996,88.2353,271.88,0.00023606,3.472e-05,0.0,0 STARLINK-3962,1 52708U 22053BE  24049.86649089  .00003472  00000-0  23606-3 0  9999,2 52708  53.2150 260.1996 0001408  88.2353 271.8800 15.08853159 97697,6917.84,95.437,540.679,538.731,0.0
52708.0,STARLINK-3962,PAYLOAD,2024-02-19 06:20:03,15.08844874,0.0001501,53.2152,258.415,86.2213,273.8951,4.3179e-05,3.99e-06,0.0,0 STARLINK-3962,1 52708U 22053BE  24050.26393299  .00000399  00000-0  43179-4 0  9997,2 52708  53.2152 258.4150 0001501  86.2213 273.8951 15.08844874 97758,6917.865,95.437,540.769,538.692,0.0
52708.0,STARLINK-3962,PAYLOAD,2024-02-19 14:16:59,15.08837724,0.0001655,53.2157,256.9263,84.3729,275.7452,-5.7345e-05,-1.201e-05,0.0,0 STARLINK-3962,1 52708U 22053BE  24050.59513577 -.00001201  00000-0 -57345-4 0  9991,2 52708  53.2157 256.9263 0001655  84.3729 275.7452 15.08837724 98431,6917.887,95.438,540.897,538.607,0.0
52708.0,STARLINK-3962,PAYLOAD,2024-02-19 20:38:32,15.08838523,0.0001382,53.2152,255.7386,89.9607,270.1543,-9.5795e-06,-4.4e-06,0.0,0 STARLINK-3962,1 52708U 22053BE  24050.86009643 -.00000440  00000-0 -95795-5 0  9991,2 52708  53.2152 255.7386 0001382  89.9607 270.1543 15.08838523 97844,6917.885,95.438,540.706,538.794,0.0
52708.0,STARLINK-3962,PAYLOAD,2024-02-20 06:10:51,15.08837179,0.0001358,53.215,253.9542,87.8293,272.2855,-3.1752e-05,-7.93e-06,0.0,0 STARLINK-3962,1 52708U 22053BE  24051.25753720 -.00000793  00000-0 -31752-4 0  9990,2 52708  53.2150 253.9542 0001358  87.8293 272.2855 15.08837179 98539,6917.889,95.438,540.693,538.815,0.0
52708.0,STARLINK-3962,PAYLOAD,2024-02-20 20:29:19,15.08838429,0.0001302,53.215,251.2783,86.8013,273.3128,-7.3626e-06,-4.05e-06,0.0,0 STARLINK-3962,1 52708U 22053BE  24051.85369840 -.00000405  00000-0 -73626-5 0  9999,2 52708  53.2150 251.2783 0001302  86.8013 273.3128 15.08838429 98629,6917.885,95.438,540.651,538.849,0.0
52708.0,STARLINK-3962,PAYLOAD,2024-02-20 23:40:05,15.08841512,0.0001311,53.2149,250.6833,86.0918,274.0224,5.4468e-05,5.79e-06,0.0,0 STARLINK-3962,1 52708U 22053BE  24051.98617726  .00000579  00000-0  54468-4 0  9994,2 52708  53.2149 250.6833 0001311  86.0918 274.0224 15.08841512 98017,6917.876,95.437,540.648,538.834,0.0
52708.0,STARLINK-3962,PAYLOAD,2024-02-21 06:01:38,15.08839741,0.0001284,53.2148,249.4937,86.8379,273.276,9.907e-05,1.289e-05,0.0,0 STARLINK-3962,1 52708U 22053BE  24052.25113880  .00001289  00000-0  99070-4 0  9994,2 52708  53.2148 249.4937 0001284  86.8379 273.2760 15.08839741 98685,6917.881,95.438,540.634,538.858,0.0
52708.0,STARLINK-3962,PAYLOAD,2024-02-21 20:20:06,15.08844044,0.0001251,53.2146,246.8167,84.1715,275.942,0.00021337,3.11e-05,0.0,0 STARLINK-3962,1 52708U 22053BE  24052.84729772  .00003110  00000-0  21337-3 0  9997,2 52708  53.2146 246.8167 0001251  84.1715 275.9420 15.08844044 98772,6917.868,95.437,540.598,538.868,0.0
52708.0,STARLINK-3962,PAYLOAD,2024-02-22 05:52:25,15.08843001,0.000125,53.2144,245.0329,88.7446,271.3689,0.00015839,2.234e-05,0.0,0 STARLINK-3962,1 52708U 22053BE  24053.24473813  .00002234  00000-0  15839-3 0  9990,2 52708  53.2144 245.0329 0001250  88.7446 271.3689 15.08843001 98208,6917.871,95.437,540.601,538.871,0.0
52708.0,STARLINK-3962,PAYLOAD,2024-02-22 20:10:53,15.08842552,0.0001285,53.2149,242.3557,85.8172,274.2967,7.6806e-05,9.35e-06,0.0,0 STARLINK-3962,1 52708U 22053BE  24053.84089865  .00000935  00000-0  76806-4 0  9994,2 52708  53.2149 242.3557 0001285  85.8172 274.2967 15.08842552 98928,6917.873,95.437,540.627,538.849,0.0
52708.0,STARLINK-3962,PAYLOAD,2024-02-23 12:04:45,15.08834835,0.0001231,53.2148,239.3823,87.7499,272.3634,6.8389e-06,-1.79e-06,0.0,0 STARLINK-3962,1 52708U 22053BE  24054.50330364 -.00000179  00000-0  68389-5 0  9990,2 52708  53.2148 239.3823 0001231  87.7499 272.3634 15.08834835 98399,6917.896,95.438,540.613,538.91,0.0
52708.0,STARLINK-3962,PAYLOAD,2024-02-23 18:26:18,15.08839532,0.0001243,53.2155,238.1927,88.8732,271.2403,4.1492e-05,3.73e-06,0.0,0 STARLINK-3962,1 52708U 22053BE  24054.76826439  .00000373  00000-0  41492-4 0  9991,2 52708  53.2155 238.1927 0001243  88.8732 271.2403 15.08839532 99060,6917.882,95.438,540.607,538.887,0.0
52708.0,STARLINK-3962,PAYLOAD,2024-02-24 05:34:00,15.08834541,0.0001288,53.2159,236.1113,92.3932,267.7208,0.00017389,2.48e-05,0.0,0 STARLINK-3962,1 52708U 22053BE  24055.23194641  .00002480  00000-0  17389-3 0  9995,2 52708  53.2159 236.1113 0001288  92.3932 267.7208 15.08834541 99136,6917.897,95.438,540.653,538.871,0.0
52708.0,STARLINK-3962,PAYLOAD,2024-02-25 14:57:05,15.0884542,0.0001227,53.2154,229.867,85.1351,274.9781,0.00018194,2.609e-05,0.0,0 STARLINK-3962,1 52708U 22053BE  24056.62297791  .00002609  00000-0  18194-3 0  9997,2 52708  53.2154 229.8670 0001227  85.1351 274.9781 15.08845420 99343,6917.864,95.437,540.578,538.88,0.0
52708.0,STARLINK-3962,PAYLOAD,2024-02-25 18:07:51,15.08851583,0.0001249,53.2162,229.272,87.8977,272.2158,0.00019358,2.795e-05,0.0,0 STARLINK-3962,1 52708U 22053BE  24056.75545426  .00002795  00000-0  19358-3 0  9991,2 52708  53.2162 229.2720 0001249  87.8977 272.2158 15.08851583 98737,6917.845,95.437,540.574,538.846,0.0
52708.0,STARLINK-3962,PAYLOAD,2024-02-25 21:18:37,15.0885468,0.0001259,53.2152,228.6761,88.9161,271.1975,0.00028178,4.201e-05,0.0,0 STARLINK-3962,1 52708U 22053BE  24056.88793528  .00004201  00000-0  28178-3 0  9997,2 52708  53.2152 228.6761 0001259  88.9161 271.1975 15.08854680 99380,6917.836,95.437,540.571,538.83,0.0
52708.0,STARLINK-3962,PAYLOAD,2024-02-26 11:37:06,15.08832914,8.79e-05,53.2163,225.9996,86.1685,273.9408,-6.8887e-05,-1.384e-05,0.0,0 STARLINK-3962,1 52708U 22053BE  24057.48410613 -.00001384  00000-0 -68887-4 0  9998,2 52708  53.2163 225.9996 0000879  86.1685 273.9408 15.08832914 98847,6917.902,95.438,540.375,539.159,0.0
52708.0,STARLINK-3962,PAYLOAD,2024-02-26 14:47:52,15.08838967,0.0001738,53.2152,225.3975,120.4155,239.7009,-8.5517e-06,-4.24e-06,0.0,0 STARLINK-3962,1 52708U 22053BE  24057.61658223 -.00000424  00000-0 -85517-5 0  9998,2 52708  53.2152 225.3975 0001738 120.4155 239.7009 15.08838967 99498,6917.884,95.438,540.951,538.546,0.0
52708.0,STARLINK-3962,PAYLOAD,2024-02-26 16:23:15,15.08838462,0.0001687,53.2152,225.1,120.7653,239.3505,-1.4688e-05,-5.22e-06,0.0,0 STARLINK-3962,1 52708U 22053BE  24057.68282248 -.00000522  00000-0 -14688-4 0  9994,2 52708  53.2152 225.1000 0001687 120.7653 239.3505 15.08838462 98872,6917.885,95.438,540.917,538.583,0.0
52708.0,STARLINK-3962,PAYLOAD,2024-02-27 14:38:39,15.08840709,0.0001256,53.2156,220.9462,91.6332,268.4804,-1.0779e-05,-4.59e-06,0.0,0 STARLINK-3962,1 52708U 22053BE  24058.61018461 -.00000459  00000-0 -10779-4 0  9998,2 52708  53.2156 220.9462 0001256  91.6332 268.4804 15.08840709 99641,6917.878,95.438,540.612,538.874,0.0
52708.0,STARLINK-3962,PAYLOAD,2024-02-27 17:49:26,15.08845229,0.0001113,53.2147,220.3508,88.9354,271.1766,-8.7372e-06,-4.27e-06,0.0,0 STARLINK-3962,1 52708U 22053BE  24058.74266224 -.00000427  00000-0 -87372-5 0  9993,2 52708  53.2147 220.3508 0001113  88.9354 271.1766 15.08845229 99034,6917.864,95.437,540.499,538.959,0.0
52708.0,STARLINK-3962,PAYLOAD,2024-02-28 11:18:41,15.08834151,0.0001406,53.2166,217.082,97.6849,262.4303,0.00014479,2.017e-05,0.0,0 STARLINK-3962,1 52708U 22053BE  24059.47131053  .00002017  00000-0  14479-3 0  9996,2 52708  53.2166 217.0820 0001406  97.6849 262.4303 15.08834151 99140,6917.898,95.438,540.736,538.791,0.0
52708.0,STARLINK-3962,PAYLOAD,2024-02-28 14:29:27,15.08834956,0.0001403,53.2166,216.4873,97.9651,262.1501,0.00014166,1.967e-05,0.0,0 STARLINK-3962,1 52708U 22053BE  24059.60379050  .00001967  00000-0  14166-3 0  9998,2 52708  53.2166 216.4873 0001403  97.9651 262.1501 15.08834956 99793,6917.896,95.438,540.731,538.79,0.0
52708.0,STARLINK-3962,PAYLOAD,2024-02-28 17:40:13,15.0883776,0.0001425,53.2166,215.893,99.4646,260.6507,0.0001749,2.497e-05,0.0,0 STARLINK-3962,1 52708U 22053BE  24059.73626967  .00002497  00000-0  17490-3 0  9996,2 52708  53.2166 215.8930 0001425  99.4646 260.6507 15.08837760 99813,6917.887,95.438,540.738,538.766,0.0
52708.0,STARLINK-3962,PAYLOAD,2024-02-29 14:20:14,15.08836141,0.0001429,53.2167,212.0277,99.607,260.5083,3.4801e-05,2.66e-06,0.0,0 STARLINK-3962,1 52708U 22053BE  24060.59739291  .00000266  00000-0  34801-4 0  9995,2 52708  53.2167 212.0277 0001429  99.6070 260.5083 15.08836141 99948,6917.892,95.438,540.746,538.769,0.0
52708.0,STARLINK-3962,PAYLOAD,2024-02-29 19:06:24,15.08841352,0.0001135,53.2155,211.1341,90.8802,269.232,0.00011195,1.494e-05,0.0,0 STARLINK-3962,1 52708U 22053BE  24060.79611226  .00001494  00000-0  11195-3 0  9998,2 52708  53.2155 211.1341 0001135  90.8802 269.2320 15.08841352 99341,6917.876,95.437,540.526,538.956,0.0
52708.0,STARLINK-3962,PAYLOAD,2024-03-01 14:11:00,15.0885761,0.0001116,53.2142,207.5654,82.9223,277.1896,-9.194e-05,-1.751e-05,0.0,0 STARLINK-3962,1 52708U 22053BE  24061.59098014 -.00001751  00000-0 -91940-4 0  9996,2 52708  53.2142 207.5654 0001116  82.9223 277.1896 15.08857610100096,6917.827,95.436,540.464,538.92,0.0
52708.0,STARLINK-3962,PAYLOAD,2024-03-01 15:46:24,15.088514,0.000114,53.2145,207.2677,89.7942,270.3181,0.00024733,3.652e-05,0.0,0 STARLINK-3962,1 52708U 22053BE  24061.65722520  .00003652  00000-0  24733-3 0  9994,2 52708  53.2145 207.2677 0001140  89.7942 270.3181 15.08851400 99473,6917.846,95.437,540.499,538.922,0.0
52708.0,STARLINK-3962,PAYLOAD,2024-03-02 14:01:48,15.08847771,0.0001421,53.2161,203.1025,74.9658,285.1491,0.00014993,2.099e-05,0.0,0 STARLINK-3962,1 52708U 22053BE  24062.58458715  .00002099  00000-0  14993-3 0  9990,2 52708  53.2161 203.1025 0001421  74.9658 285.1491 15.08847771100247,6917.857,95.437,540.705,538.739,0.0
